{"type": "FeatureCollection", "features": [ {"type": "Feature", "properties": {"norad_id": 33799, "name": "COSMOS 2251 DEB", "group": "cosmos-2251-debris", "lat": -65.89492764678417, "lon": -86.68785379489556, "alt_km": 647.1965742573493, "timestamp": "2025-12-27T02:10:16.581612+00:00", "meta": {"OBJECT_NAME": "COSMOS 2251 DEB", "OBJECT_ID": "1993-036AQ", "EPOCH": "2025-12-26T20:41:55.171104", "MEAN_MOTION": 14.79845741, "ECCENTRICITY": 0.0022118, "INCLINATION": 74.0325, "RA_OF_ASC_NODE": 53.9742, "ARG_OF_PERICENTER": 119.3552, "MEAN_ANOMALY": 357.8405, "EPHEMERIS_TYPE": 0, "CLASSIFICATION_TYPE": "U", "NORAD_CAT_ID": 33799, "ELEMENT_SET_NO": 999, "REV_AT_EPOCH": 89020, "BSTAR": 0.0013897, "MEAN_MOTION_DOT": 0.00010501, "MEAN_MOTION_DDOT": 0}, "tle": {"line1": "1 33799U 93036AQ  25360.86244411  .00010501  00000+0  13897-2 0  9994", "line2": "2 33799  74.0325  53.9742 0022118 119.3552 357.8405 14.79845741890205"}}, "geometry": {"type": "Point", "coordinates": [-86.68785379489556, -65.89492764678417]}}, {"type": "Feature", "properties": {"norad_id": 33805, "name": "COSMOS 2251 DEB", "group": "cosmos-2251-debris", "lat": -20.977549932479935, "lon": -82.27207156696001, "alt_km": 732.3421948319356, "timestamp": "2025-12-27T02:10:16.581623+00:00", "meta": {"OBJECT_NAME": "COSMOS 2251 DEB", "OBJECT_ID": "1993-036AW", "EPOCH": "2025-12-26T18:02:14.693280", "MEAN_MOTION": 14.57886615, "ECCENTRICITY": 0.0059874, "INCLINATION": 74.0313, "RA_OF_ASC_NODE": 284.6755, "ARG_OF_PERICENTER": 109.5485, "MEAN_ANOMALY": 251.2159, "EPHEMERIS_TYPE": 0, "CLASSIFICATION_TYPE": "U", "NORAD_CAT_ID": 33805, "ELEMENT_SET_NO": 999, "REV_AT_EPOCH": 89431, "BSTAR": 0.00025663, "MEAN_MOTION_DOT": 1.175e-05, "MEAN_MOTION_DDOT": 0}, "tle": {"line1": "1 33805U 93036AW  25360.75155895  .00001175  00000+0  25663-3 0  9999", "line2": "2 33805  74.0313 284.6755 0059874 109.5485 251.2159 14.57886615894312"}}, "geometry": {"type": "Point", "coordinates": [-82.27207156696001, -20.977549932479935]}}, {"type": "Feature", "properties": {"norad_id": 33811, "name": "COSMOS 2251 DEB", "group": "cosmos-2251-debris", "lat": 33.746214721332954, "lon": 81.71294470118649, "alt_km": 566.1023177191464, "timestamp": "2025-12-27T02:10:16.581633+00:00", "meta": {"OBJECT_NAME": "COSMOS 2251 DEB", "OBJECT_ID": "1993-036BC", "EPOCH": "2025-12-26T21:02:15.139968", "MEAN_MOTION": 15.05694858, "ECCENTRICITY": 0.0031007, "INCLINATION": 73.8376, "RA_OF_ASC_NODE": 273.3286, "ARG_OF_PERICENTER": 351.6254, "MEAN_ANOMALY": 73.797, "EPHEMERIS_TYPE": 0, "CLASSIFICATION_TYPE": "U", "NORAD_CAT_ID": 33811, "ELEMENT_SET_NO": 999, "REV_AT_EPOCH": 90231, "BSTAR": 0.0011404, "MEAN_MOTION_DOT": 0.00016663, "MEAN_MOTION_DDOT": 0}, "tle": {"line1": "1 33811U 93036BC  25360.87656412  .00016663  00000+0  11404-2 0  9995", "line2": "2 33811  73.8376 273.3286 0031007 351.6254  73.7970 15.05694858902319"}}, "geometry": {"type": "Point", "coordinates": [81.71294470118649, 33.746214721332954]}}, {"type": "Feature", "properties": {"norad_id": 33815, "name": "COSMOS 2251 DEB", "group": "cosmos-2251-debris", "lat": -56.832155463223565, "lon": -7.516058097495166, "alt_km": 505.9440250740181, "timestamp": "2025-12-27T02:10:16.581643+00:00", "meta": {"OBJECT_NAME": "COSMOS 2251 DEB", "OBJECT_ID": "1993-036BG", "EPOCH": "2025-12-26T19:21:29.172960", "MEAN_MOTION": 15.2217288, "ECCENTRICITY": 0.0004659, "INCLINATION": 73.9509, "RA_OF_ASC_NODE": 146.9508, "ARG_OF_PERICENTER": 335.5808, "MEAN_ANOMALY": 149.9853, "EPHEMERIS_TYPE": 0, "CLASSIFICATION_TYPE": "U", "NORAD_CAT_ID": 33815, "ELEMENT_SET_NO": 999, "REV_AT_EPOCH": 88584, "BSTAR": 0.0082177, "MEAN_MOTION_DOT": 0.00193763, "MEAN_MOTION_DDOT": 0}, "tle": {"line1": "1 33815U 93036BG  25360.80658765  .00193763  00000+0  82177-2 0  9997", "line2": "2 33815  73.9509 146.9508 0004659 335.5808 149.9853 15.22172880885842"}}, "geometry": {"type": "Point", "coordinates": [-7.516058097495166, -56.832155463223565]}}, {"type": "Feature", "properties": {"norad_id": 33816, "name": "COSMOS 2251 DEB", "group": "cosmos-2251-debris", "lat": 6.670319411675492, "lon": -100.86238805114189, "alt_km": 926.4552710285498, "timestamp": "2025-12-27T02:10:16.581654+00:00", "meta": {"OBJECT_NAME": "COSMOS 2251 DEB", "OBJECT_ID": "1993-036BH", "EPOCH": "2025-12-26T13:12:12.420864", "MEAN_MOTION": 13.8179828, "ECCENTRICITY": 0.0264088, "INCLINATION": 73.8953, "RA_OF_ASC_NODE": 81.9893, "ARG_OF_PERICENTER": 92.1797, "MEAN_ANOMALY": 270.9588, "EPHEMERIS_TYPE": 0, "CLASSIFICATION_TYPE": "U", "NORAD_CAT_ID": 33816, "ELEMENT_SET_NO": 999, "REV_AT_EPOCH": 84864, "BSTAR": 0.00036141, "MEAN_MOTION_DOT": 4.83e-06, "MEAN_MOTION_DDOT": 0}, "tle": {"line1": "1 33816U 93036BH  25360.55014376  .00000483  00000+0  36141-3 0  9991", "line2": "2 33816  73.8953  81.9893 0264088  92.1797 270.9588 13.81798280848645"}}, "geometry": {"type": "Point", "coordinates": [-100.86238805114189, 6.670319411675492]}}, {"type": "Feature", "properties": {"norad_id": 33818, "name": "COSMOS 2251 DEB", "group": "cosmos-2251-debris", "lat": 45.47935522528852, "lon": -60.31641300579371, "alt_km": 504.77253394170475, "timestamp": "2025-12-27T02:10:16.581678+00:00", "meta": {"OBJECT_NAME": "COSMOS 2251 DEB", "OBJECT_ID": "1993-036BK", "EPOCH": "2025-12-26T19:45:00.139392", "MEAN_MOTION": 15.13704026, "ECCENTRICITY": 0.0023634, "INCLINATION": 74.0797, "RA_OF_ASC_NODE": 137.1105, "ARG_OF_PERICENTER": 118.5172, "MEAN_ANOMALY": 356.1267, "EPHEMERIS_TYPE": 0, "CLASSIFICATION_TYPE": "U", "NORAD_CAT_ID": 33818, "ELEMENT_SET_NO": 999, "REV_AT_EPOCH": 90075, "BSTAR": 0.0026801, "MEAN_MOTION_DOT": 0.00048886, "MEAN_MOTION_DDOT": 0}, "tle": {"line1": "1 33818U 93036BK  25360.82291828  .00048886  00000+0  26801-2 0  9992", "line2": "2 33818  74.0797 137.1105 0023634 118.5172 356.1267 15.13704026900750"}}, "geometry": {"type": "Point", "coordinates": [-60.31641300579371, 45.47935522528852]}}, {"type": "Feature", "properties": {"norad_id": 33819, "name": "COSMOS 2251 DEB", "group": "cosmos-2251-debris", "lat": 42.18668297868467, "lon": -161.21962571164437, "alt_km": 716.3107867243543, "timestamp": "2025-12-27T02:10:16.581691+00:00", "meta": {"OBJECT_NAME": "COSMOS 2251 DEB", "OBJECT_ID": "1993-036BL", "EPOCH": "2025-12-26T16:16:01.146720", "MEAN_MOTION": 14.32266299, "ECCENTRICITY": 0.0089582, "INCLINATION": 74.1772, "RA_OF_ASC_NODE": 184.6335, "ARG_OF_PERICENTER": 41.7568, "MEAN_ANOMALY": 35.5522, "EPHEMERIS_TYPE": 0, "CLASSIFICATION_TYPE": "U", "NORAD_CAT_ID": 33819, "ELEMENT_SET_NO": 999, "REV_AT_EPOCH": 87695, "BSTAR": 0.00053418, "MEAN_MOTION_DOT": 1.482e-05, "MEAN_MOTION_DDOT": 0}, "tle": {"line1": "1 33819U 93036BL  25360.67779105  .00001482  00000+0  53418-3 0  9991", "line2": "2 33819  74.1772 184.6335 0089582  41.7568  35.5522 14.32266299876958"}}, "geometry": {"type": "Point", "coordinates": [-161.21962571164437, 42.18668297868467]}}, {"type": "Feature", "properties": {"norad_id": 33821, "name": "COSMOS 2251 DEB", "group": "cosmos-2251-debris", "lat": -46.38644315353339, "lon": -50.028550596581034, "alt_km": 492.090509968496, "timestamp": "2025-12-27T02:10:16.581702+00:00", "meta": {"OBJECT_NAME": "COSMOS 2251 DEB", "OBJECT_ID": "1993-036BN", "EPOCH": "2025-12-26T17:18:35.884224", "MEAN_MOTION": 15.26197186, "ECCENTRICITY": 0.0048956, "INCLINATION": 74.0304, "RA_OF_ASC_NODE": 113.2604, "ARG_OF_PERICENTER": 141.9043, "MEAN_ANOMALY": 218.5636, "EPHEMERIS_TYPE": 0, "CLASSIFICATION_TYPE": "U", "NORAD_CAT_ID": 33821, "ELEMENT_SET_NO": 999, "REV_AT_EPOCH": 75214, "BSTAR": 0.0013017, "MEAN_MOTION_DOT": 0.00034989, "MEAN_MOTION_DDOT": 0}, "tle": {"line1": "1 33821U 93036BN  25360.72124866  .00034989  00000+0  13017-2 0  9996", "line2": "2 33821  74.0304 113.2604 0048956 141.9043 218.5636 15.26197186752144"}}, "geometry": {"type": "Point", "coordinates": [-50.028550596581034, -46.38644315353339]}}, {"type": "Feature", "properties": {"norad_id": 33822, "name": "COSMOS 2251 DEB", "group": "cosmos-2251-debris", "lat": -33.67460643193439, "lon": 157.37590583888633, "alt_km": 897.2097339787615, "timestamp": "2025-12-27T02:10:16.581712+00:00", "meta": {"OBJECT_NAME": "COSMOS 2251 DEB", "OBJECT_ID": "1993-036BP", "EPOCH": "2025-12-26T14:48:07.428096", "MEAN_MOTION": 14.13147705, "ECCENTRICITY": 0.0152549, "INCLINATION": 74.0689, "RA_OF_ASC_NODE": 169.1826, "ARG_OF_PERICENTER": 212.1875, "MEAN_ANOMALY": 222.0795, "EPHEMERIS_TYPE": 0, "CLASSIFICATION_TYPE": "U", "NORAD_CAT_ID": 33822, "ELEMENT_SET_NO": 999, "REV_AT_EPOCH": 86250, "BSTAR": 0.0018733, "MEAN_MOTION_DOT": 3.89e-05, "MEAN_MOTION_DDOT": 0}, "tle": {"line1": "1 33822U 93036BP  25360.61675264  .00003890  00000+0  18733-2 0  9995", "line2": "2 33822  74.0689 169.1826 0152549 212.1875 222.0795 14.13147705862500"}}, "geometry": {"type": "Point", "coordinates": [157.37590583888633, -33.67460643193439]}}, {"type": "Feature", "properties": {"norad_id": 33823, "name": "COSMOS 2251 DEB", "group": "cosmos-2251-debris", "lat": 43.67101380275561, "lon": -71.92201254496842, "alt_km": 950.3189343436579, "timestamp": "2025-12-27T02:10:16.581722+00:00", "meta": {"OBJECT_NAME": "COSMOS 2251 DEB", "OBJECT_ID": "1993-036BQ", "EPOCH": "2025-12-26T10:21:01.378944", "MEAN_MOTION": 13.9898683, "ECCENTRICITY": 0.0209489, "INCLINATION": 73.8101, "RA_OF_ASC_NODE": 125.3346, "ARG_OF_PERICENTER": 248.3149, "MEAN_ANOMALY": 169.1404, "EPHEMERIS_TYPE": 0, "CLASSIFICATION_TYPE": "U", "NORAD_CAT_ID": 33823, "ELEMENT_SET_NO": 999, "REV_AT_EPOCH": 85801, "BSTAR": 0.00093914, "MEAN_MOTION_DOT": 1.611e-05, "MEAN_MOTION_DDOT": 0}, "tle": {"line1": "1 33823U 93036BQ  25360.43126596  .00001611  00000+0  93914-3 0  9999", "line2": "2 33823  73.8101 125.3346 0209489 248.3149 169.1404 13.98986830858010"}}, "geometry": {"type": "Point", "coordinates": [-71.92201254496842, 43.67101380275561]}}]}